[{"OBJECT_NAME":"SL-14 R/B","OBJECT_ID":"1986-006B","EPOCH":"2026-04-07T20:42:17.513280","MEAN_MOTION":14.86869471,"ECCENTRICITY":0.00766257,"INCLINATION":82.5268,"RA_OF_ASC_NODE":232.2767,"ARG_OF_PERICENTER":174.8994,"MEAN_ANOMALY":185.3022,"EPHEMERIS_TYPE":0,"CLASSIFICATION_TYPE":"U","NORAD_CAT_ID":16496,"ELEMENT_SET_NO":999,"REV_AT_EPOCH":15354,"BSTAR":0.0001049611,"MEAN_MOTION_DOT":1.015e-5,"MEAN_MOTION_DDOT":0},{"OBJECT_NAME":"COSMOS 1743","OBJECT_ID":"1986-034A","EPOCH":"2026-04-08T06:44:07.449792","MEAN_MOTION":15.61336316,"ECCENTRICITY":0.00062466,"INCLINATION":82.5316,"RA_OF_ASC_NODE":42.7155,"ARG_OF_PERICENTER":145.4486,"MEAN_ANOMALY":214.7179,"EPHEMERIS_TYPE":0,"CLASSIFICATION_TYPE":"U","NORAD_CAT_ID":16719,"ELEMENT_SET_NO":999,"REV_AT_EPOCH":18486,"BSTAR":0.00055454586,"MEAN_MOTION_DOT":0.00047384,"MEAN_MOTION_DDOT":0},{"OBJECT_NAME":"SL-14 R/B","OBJECT_ID":"1986-046B","EPOCH":"2026-04-08T07:24:19.767168","MEAN_MOTION":14.8562247,"ECCENTRICITY":0.00243113,"INCLINATION":82.4822,"RA_OF_ASC_NODE":52.1913,"ARG_OF_PERICENTER":127.7533,"MEAN_ANOMALY":232.5891,"EPHEMERIS_TYPE":0,"CLASSIFICATION_TYPE":"U","NORAD_CAT_ID":16792,"ELEMENT_SET_NO":999,"REV_AT_EPOCH":13080,"BSTAR":5.6102157e-5,"MEAN_MOTION_DOT":5.13e-6,"MEAN_MOTION_DDOT":0},{"OBJECT_NAME":"SL-14 R/B","OBJECT_ID":"1986-055B","EPOCH":"2026-04-08T07:02:47.746752","MEAN_MOTION":14.8567152,"ECCENTRICITY":0.0017615,"INCLINATION":82.5168,"RA_OF_ASC_NODE":98.8392,"ARG_OF_PERICENTER":231.2253,"MEAN_ANOMALY":139.5423,"EPHEMERIS_TYPE":0,"CLASSIFICATION_TYPE":"U","NORAD_CAT_ID":16882,"ELEMENT_SET_NO":999,"REV_AT_EPOCH":12376,"BSTAR":4.9361887e-5,"MEAN_MOTION_DOT":4.53e-6,"MEAN_MOTION_DDOT":0},{"OBJECT_NAME":"AJISAI (EGS)","OBJECT_ID":"1986-061A","EPOCH":"2026-04-08T06:51:30.862368","MEAN_MOTION":12.44515689,"ECCENTRICITY":0.00113853,"INCLINATION":50.0122,"RA_OF_ASC_NODE":2.3412,"ARG_OF_PERICENTER":3.2164,"MEAN_ANOMALY":143.7921,"EPHEMERIS_TYPE":0,"CLASSIFICATION_TYPE":"U","NORAD_CAT_ID":16908,"ELEMENT_SET_NO":999,"REV_AT_EPOCH":47168,"BSTAR":5.212674e-5,"MEAN_MOTION_DOT":-9.0e-7,"MEAN_MOTION_DDOT":0},{"OBJECT_NAME":"SL-14 R/B","OBJECT_ID":"1987-024B","EPOCH":"2026-04-08T04:42:59.175936","MEAN_MOTION":14.86163379,"ECCENTRICITY":0.00187424,"INCLINATION":82.527,"RA_OF_ASC_NODE":65.0236,"ARG_OF_PERICENTER":158.4217,"MEAN_ANOMALY":201.7794,"EPHEMERIS_TYPE":0,"CLASSIFICATION_TYPE":"U","NORAD_CAT_ID":17567,"ELEMENT_SET_NO":999,"REV_AT_EPOCH":9251,"BSTAR":5.522526e-5,"MEAN_MOTION_DOT":5.1e-6,"MEAN_MOTION_DDOT":0},{"OBJECT_NAME":"COSMOS 1833","OBJECT_ID":"1987-027A","EPOCH":"2026-04-08T04:00:55.170144","MEAN_MOTION":14.13042197,"ECCENTRICITY":0.00227996,"INCLINATION":70.9163,"RA_OF_ASC_NODE":264.0572,"ARG_OF_PERICENTER":170.1541,"MEAN_ANOMALY":190.0031,"EPHEMERIS_TYPE":0,"CLASSIFICATION_TYPE":"U","NORAD_CAT_ID":17589,"ELEMENT_SET_NO":999,"REV_AT_EPOCH":1448,"BSTAR":-0.00013964106,"MEAN_MOTION_DOT":-3.09e-6,"MEAN_MOTION_DDOT":0},{"OBJECT_NAME":"SL-16 R/B","OBJECT_ID":"1987-027B","EPOCH":"2026-04-08T01:19:47.018784","MEAN_MOTION":14.17170149,"ECCENTRICITY":0.00028678,"INCLINATION":71.0033,"RA_OF_ASC_NODE":214.6103,"ARG_OF_PERICENTER":67.1364,"MEAN_ANOMALY":293.0063,"EPHEMERIS_TYPE":0,"CLASSIFICATION_TYPE":"U","NORAD_CAT_ID":17590,"ELEMENT_SET_NO":999,"REV_AT_EPOCH":1950,"BSTAR":6.5289402e-5,"MEAN_MOTION_DOT":8.4e-7,"MEAN_MOTION_DDOT":0},{"OBJECT_NAME":"SL-14 R/B","OBJECT_ID":"1987-038B","EPOCH":"2026-04-08T04:57:31.449600","MEAN_MOTION":14.85399215,"ECCENTRICITY":0.00206443,"INCLINATION":82.4981,"RA_OF_ASC_NODE":268.992,"ARG_OF_PERICENTER":68.8285,"MEAN_ANOMALY":291.5134,"EPHEMERIS_TYPE":0,"CLASSIFICATION_TYPE":"U","NORAD_CAT_ID":17912,"ELEMENT_SET_NO":999,"REV_AT_EPOCH":8361,"BSTAR":5.3958637e-5,"MEAN_MOTION_DOT":4.91e-6,"MEAN_MOTION_DDOT":0},{"OBJECT_NAME":"COSMOS 1844","OBJECT_ID":"1987-041A","EPOCH":"2026-04-08T00:42:34.944768","MEAN_MOTION":14.14564148,"ECCENTRICITY":0.00318081,"INCLINATION":70.9014,"RA_OF_ASC_NODE":332.293,"ARG_OF_PERICENTER":334.705,"MEAN_ANOMALY":25.2512,"EPHEMERIS_TYPE":0,"CLASSIFICATION_TYPE":"U","NORAD_CAT_ID":17973,"ELEMENT_SET_NO":999,"REV_AT_EPOCH":773,"BSTAR":0.00011114419,"MEAN_MOTION_DOT":1.66e-6,"MEAN_MOTION_DDOT":0},{"OBJECT_NAME":"SL-14 R/B","OBJECT_ID":"1987-055B","EPOCH":"2026-04-08T01:02:43.943424","MEAN_MOTION":14.85659042,"ECCENTRICITY":0.00191073,"INCLINATION":82.4989,"RA_OF_ASC_NODE":321.3673,"ARG_OF_PERICENTER":277.2527,"MEAN_ANOMALY":82.6517,"EPHEMERIS_TYPE":0,"CLASSIFICATION_TYPE":"U","NORAD_CAT_ID":18153,"ELEMENT_SET_NO":999,"REV_AT_EPOCH":7429,"BSTAR":4.2296939e-5,"MEAN_MOTION_DOT":3.91e-6,"MEAN_MOTION_DDOT":0},{"OBJECT_NAME":"COSMOS 1867","OBJECT_ID":"1987-060A","EPOCH":"2026-04-08T06:31:49.748448","MEAN_MOTION":14.31508035,"ECCENTRICITY":0.00150398,"INCLINATION":65.0104,"RA_OF_ASC_NODE":223.8559,"ARG_OF_PERICENTER":280.2498,"MEAN_ANOMALY":79.689,"EPHEMERIS_TYPE":0,"CLASSIFICATION_TYPE":"U","NORAD_CAT_ID":18187,"ELEMENT_SET_NO":999,"REV_AT_EPOCH":2417,"BSTAR":3.7487644e-5,"MEAN_MOTION_DOT":0,"MEAN_MOTION_DDOT":0},{"OBJECT_NAME":"SL-14 R/B","OBJECT_ID":"1988-001B","EPOCH":"2026-04-08T04:12:58.541184","MEAN_MOTION":14.8556089,"ECCENTRICITY":0.00191444,"INCLINATION":82.5152,"RA_OF_ASC_NODE":167.6363,"ARG_OF_PERICENTER":137.5069,"MEAN_ANOMALY":222.7633,"EPHEMERIS_TYPE":0,"CLASSIFICATION_TYPE":"U","NORAD_CAT_ID":18749,"ELEMENT_SET_NO":999,"REV_AT_EPOCH":4640,"BSTAR":4.4254381e-5,"MEAN_MOTION_DOT":4.08e-6,"MEAN_MOTION_DDOT":0},{"OBJECT_NAME":"COSMOS 1933","OBJECT_ID":"1988-020A","EPOCH":"2026-04-08T07:39:16.421184","MEAN_MOTION":15.18289919,"ECCENTRICITY":0.00054263,"INCLINATION":82.5144,"RA_OF_ASC_NODE":221.5908,"ARG_OF_PERICENTER":97.1643,"MEAN_ANOMALY":263.0208,"EPHEMERIS_TYPE":0,"CLASSIFICATION_TYPE":"U","NORAD_CAT_ID":18958,"ELEMENT_SET_NO":999,"REV_AT_EPOCH":5472,"BSTAR":0.0001769286,"MEAN_MOTION_DOT":3.658e-5,"MEAN_MOTION_DDOT":0},{"OBJECT_NAME":"SL-3 R/B","OBJECT_ID":"1988-032B","EPOCH":"2026-04-08T05:22:01.475616","MEAN_MOTION":15.20256691,"ECCENTRICITY":0.00272985,"INCLINATION":97.5231,"RA_OF_ASC_NODE":81.385,"ARG_OF_PERICENTER":128.5392,"MEAN_ANOMALY":231.8296,"EPHEMERIS_TYPE":0,"CLASSIFICATION_TYPE":"U","NORAD_CAT_ID":19046,"ELEMENT_SET_NO":999,"REV_AT_EPOCH":5659,"BSTAR":0.00023271944,"MEAN_MOTION_DOT":5.028e-5,"MEAN_MOTION_DDOT":0},{"OBJECT_NAME":"SL-16 R/B","OBJECT_ID":"1988-039B","EPOCH":"2026-04-08T03:38:35.720448","MEAN_MOTION":14.19620883,"ECCENTRICITY":0.00239249,"INCLINATION":71.0175,"RA_OF_ASC_NODE":6.2507,"ARG_OF_PERICENTER":292.3865,"MEAN_ANOMALY":67.4725,"EPHEMERIS_TYPE":0,"CLASSIFICATION_TYPE":"U","NORAD_CAT_ID":19120,"ELEMENT_SET_NO":999,"REV_AT_EPOCH":96256,"BSTAR":3.8785089e-5,"MEAN_MOTION_DOT":3.4e-7,"MEAN_MOTION_DDOT":0},{"OBJECT_NAME":"COSMOS 1953","OBJECT_ID":"1988-050A","EPOCH":"2026-04-08T08:12:23.343840","MEAN_MOTION":15.29013631,"ECCENTRICITY":0.00114588,"INCLINATION":82.506,"RA_OF_ASC_NODE":128.4111,"ARG_OF_PERICENTER":29.3367,"MEAN_ANOMALY":330.8514,"EPHEMERIS_TYPE":0,"CLASSIFICATION_TYPE":"U","NORAD_CAT_ID":19210,"ELEMENT_SET_NO":999,"REV_AT_EPOCH":4231,"BSTAR":0.00024256588,"MEAN_MOTION_DOT":6.878e-5,"MEAN_MOTION_DDOT":0}]
