SL-14 R/B               
1 16496U 86006B   26097.86270270  .00001015  00000+0  10496-3 0  9991
2 16496  82.5268 232.2767 0076625 174.8994 185.3022 14.86869471153549
COSMOS 1743             
1 16719U 86034A   26098.28064178  .00047384  00000+0  55455-3 0  9998
2 16719  82.5316  42.7155 0006246 145.4486 214.7179 15.61336316184868
SL-14 R/B               
1 16792U 86046B   26098.30856212  .00000513  00000+0  56102-4 0  9997
2 16792  82.4822  52.1913 0024311 127.7533 232.5891 14.85622470130804
SL-14 R/B               
1 16882U 86055B   26098.29360818  .00000453  00000+0  49362-4 0  9990
2 16882  82.5168  98.8392 0017615 231.2253 139.5423 14.85671520123769
AJISAI (EGS)            
1 16908U 86061A   26098.28577387 -.00000090  00000+0  52127-4 0  9997
2 16908  50.0122   2.3412 0011385   3.2164 143.7921 12.44515689471680
SL-14 R/B               
1 17567U 87024B   26098.19651824  .00000510  00000+0  55225-4 0  9996
2 17567  82.5270  65.0236 0018742 158.4217 201.7794 14.86163379 92519
COSMOS 1833             
1 17589U 87027A   26098.16730521 -.00000309  00000+0 -13964-3 0  9993
2 17589  70.9163 264.0572 0022799 170.1541 190.0031 14.13042197 14485
SL-16 R/B               
1 17590U 87027B   26098.05540531  .00000084  00000+0  65289-4 0  9999
2 17590  71.0033 214.6103 0002867  67.1364 293.0063 14.17170149 19508
SL-14 R/B               
1 17912U 87038B   26098.20661400  .00000491  00000+0  53959-4 0  9998
2 17912  82.4981 268.9920 0020644  68.8285 291.5134 14.85399215 83613
COSMOS 1844             
1 17973U 87041A   26098.02957112  .00000166  00000+0  11114-3 0  9992
2 17973  70.9014 332.2930 0031808 334.7050  25.2512 14.14564148  7736
SL-14 R/B               
1 18153U 87055B   26098.04356416  .00000391  00000+0  42297-4 0  9997
2 18153  82.4989 321.3673 0019107 277.2527  82.6517 14.85659042 74290
COSMOS 1867             
1 18187U 87060A   26098.27210357  .00000000  00000+0  37488-4 0  9991
2 18187  65.0104 223.8559 0015039 280.2498  79.6890 14.31508035 24171
SL-14 R/B               
1 18749U 88001B   26098.17567756  .00000408  00000+0  44254-4 0  9999
2 18749  82.5152 167.6363 0019144 137.5069 222.7633 14.85560890 46401
COSMOS 1933             
1 18958U 88020A   26098.31894006  .00003658  00000+0  17693-3 0  9995
2 18958  82.5144 221.5908 0005426  97.1643 263.0208 15.18289919 54723
SL-3 R/B                
1 19046U 88032B   26098.22362819  .00005028  00000+0  23272-3 0  9992
2 19046  97.5231  81.3850 0027298 128.5392 231.8296 15.20256691 56595
SL-16 R/B               
1 19120U 88039B   26098.15180232  .00000034  00000+0  38785-4 0  9999
2 19120  71.0175   6.2507 0023924 292.3865  67.4725 14.19620883962562
COSMOS 1953             
1 19210U 88050A   26098.34193685  .00006878  00000+0  24257-3 0  9999
2 19210  82.5060 128.4111 0011458  29.3367 330.8514 15.29013631 42318
